STARLINK-5691           
1 55478U 23015AF  26068.06197720  .00000408  00000+0  45240-4 0  9994
2 55478  43.0047 316.9029 0001287 266.6850  93.3845 15.02536361170800
QPS-SAR-8 (AMATERU-IV)  
1 60542U 24149CC  26068.70418071  .00008268  00000+0  61811-3 0  9990
2 60542  97.6699 148.7511 0003873  93.1500 267.0168 15.03026697 85328
